start=new Date('2022-06-18T00:00:00.000Z').valueOf();
sats=[{"TLE_LINE2":"2 47787  53.0535 248.9615 0001407  57.3421 302.7704 15.06399769 71203","ECCENTRICITY":"0.00014070","PERIOD":"95.592","ARG_OF_PERICENTER":"57.3421","TIME_SYSTEM":"UTC","RA_OF_ASC_NODE":"248.9615","COUNTRY_CODE":"US","EPOCH":"2022-06-16T00:02:24.004608","ELEMENT_SET_NO":"999","LAUNCH_DATE":"2021-03-11","FILE":"3497002","INCLINATION":"53.0535","OBJECT_ID":"2021-018A","CENTER_NAME":"EARTH","SEMIMAJOR_AXIS":"6925.349","REF_FRAME":"TEME","MEAN_ANOMALY":"302.7704","REV_AT_EPOCH":"7120","PERIAPSIS":"546.240","MEAN_MOTION_DOT":"0.00001388","MEAN_MOTION":"15.06399769","EPHEMERIS_TYPE":"0","DECAY_DATE":null,"MEAN_ELEMENT_THEORY":"SGP4","MEAN_MOTION_DDOT":"0.0000000000000","OBJECT_TYPE":"PAYLOAD","CLASSIFICATION_TYPE":"U","OBJECT_NAME":"STARLINK-2257","APOAPSIS":"548.189","SITE":"AFETR","GP_ID":"206287673","RCS_SIZE":"LARGE","BSTAR":"0.00011207000000","TLE_LINE1":"1 47787U 21018A   22167.00166672  .00001388  00000-0  11207-3 0  9995","NORAD_CAT_ID":"47787"},{"RCS_SIZE":"LARGE","BSTAR":"-0.00013270000000","NORAD_CAT_ID":"47788","TLE_LINE1":"1 47788U 21018B   22166.88050645 -.00002257  00000-0 -13270-3 0  9993","MEAN_MOTION_DDOT":"0.0000000000000","MEAN_ELEMENT_THEORY":"SGP4","OBJECT_TYPE":"PAYLOAD","CLASSIFICATION_TYPE":"U","OBJECT_NAME":"STARLINK-2314","APOAPSIS":"548.437","GP_ID":"206236666","SITE":"AFETR","OBJECT_ID":"2021-018B","CENTER_NAME":"EARTH","SEMIMAJOR_AXIS":"6925.390","REF_FRAME":"TEME","MEAN_ANOMALY":"305.0281","REV_AT_EPOCH":"7155","EPHEMERIS_TYPE":"0","DECAY_DATE":null,"MEAN_MOTION":"15.06386502","PERIAPSIS":"546.073","MEAN_MOTION_DOT":"-0.00002257","TIME_SYSTEM":"UTC","PERIOD":"95.593","TLE_LINE2":"2 47788  53.0537 224.5168 0001707  55.0868 305.0281 15.06386502 71557","ECCENTRICITY":"0.00017070","ARG_OF_PERICENTER":"55.0868","RA_OF_ASC_NODE":"224.5168","ELEMENT_SET_NO":"999","COUNTRY_CODE":"US","EPOCH":"2022-06-15T21:07:55.757280","LAUNCH_DATE":"2021-03-11","INCLINATION":"53.0537","FILE":"3496999"},{"TIME_SYSTEM":"UTC","TLE_LINE2":"2 47789  53.0540 229.5974 0001617  70.2481 289.8682 15.06392328 71470","ECCENTRICITY":"0.00016170","PERIOD":"95.593","ARG_OF_PERICENTER":"70.2481","RA_OF_ASC_NODE":"229.5974","ELEMENT_SET_NO":"999","COUNTRY_CODE":"US","EPOCH":"2022-06-15T20:43:22.321920","LAUNCH_DATE":"2021-03-11","INCLINATION":"53.0540","FILE":"3496999","OBJECT_ID":"2021-018C","CENTER_NAME":"EARTH","SEMIMAJOR_AXIS":"6925.372","REF_FRAME":"TEME","MEAN_ANOMALY":"289.8682","REV_AT_EPOCH":"7147","EPHEMERIS_TYPE":"0","DECAY_DATE":null,"MEAN_MOTION_DOT":"-0.00002378","PERIAPSIS":"546.117","MEAN_MOTION":"15.06392328","MEAN_MOTION_DDOT":"0.0000000000000","MEAN_ELEMENT_THEORY":"SGP4","OBJECT_TYPE":"PAYLOAD","CLASSIFICATION_TYPE":"U","OBJECT_NAME":"STARLINK-2315","APOAPSIS":"548.357","GP_ID":"206236916","SITE":"AFETR","RCS_SIZE":"LARGE","BSTAR":"-0.00014081000000","NORAD_CAT_ID":"47789","TLE_LINE1":"1 47789U 21018C   22166.86345280 -.00002378  00000-0 -14081-3 0  9999"},{"GP_ID":"206212454","SITE":"AFETR","APOAPSIS":"548.305","OBJECT_NAME":"STARLINK-2319","OBJECT_TYPE":"PAYLOAD","CLASSIFICATION_TYPE":"U","MEAN_MOTION_DDOT":"0.0000000000000","MEAN_ELEMENT_THEORY":"SGP4","NORAD_CAT_ID":"47790","TLE_LINE1":"1 47790U 21018D   22166.83856394 -.00000599  00000-0 -21334-4 0  9994","BSTAR":"-0.00002133400000","RCS_SIZE":"LARGE","INCLINATION":"53.0542","FILE":"3496873","LAUNCH_DATE":"2021-03-11","ELEMENT_SET_NO":"999","EPOCH":"2022-06-15T20:07:31.924416","COUNTRY_CODE":"US","RA_OF_ASC_NODE":"219.7068","TIME_SYSTEM":"UTC","PERIOD":"95.592","TLE_LINE2":"2 47790  53.0542 219.7068 0001552  66.3033 293.8119 15.06394662 71266","ARG_OF_PERICENTER":"66.3033","ECCENTRICITY":"0.00015520","DECAY_DATE":null,"EPHEMERIS_TYPE":"0","MEAN_MOTION":"15.06394662","PERIAPSIS":"546.155","MEAN_MOTION_DOT":"-0.00000599","REV_AT_EPOCH":"7126","MEAN_ANOMALY":"293.8119","REF_FRAME":"TEME","SEMIMAJOR_AXIS":"6925.365","CENTER_NAME":"EARTH","OBJECT_ID":"2021-018D"},{"EPHEMERIS_TYPE":"0","DECAY_DATE":null,"MEAN_MOTION_DOT":"0.00000132","PERIAPSIS":"546.158","MEAN_MOTION":"15.06400738","MEAN_ANOMALY":"302.6565","REV_AT_EPOCH":"7120","REF_FRAME":"TEME","SEMIMAJOR_AXIS":"6925.346","CENTER_NAME":"EARTH","OBJECT_ID":"2021-018E","INCLINATION":"53.0535","FILE":"3497002","LAUNCH_DATE":"2021-03-11","ELEMENT_SET_NO":"999","COUNTRY_CODE":"US","EPOCH":"2022-06-15T22:10:56.127936","RA_OF_ASC_NODE":"249.3084","TIME_SYSTEM":"UTC","ARG_OF_PERICENTER":"57.4571","TLE_LINE2":"2 47791  53.0535 249.3084 0001521  57.4571 302.6565 15.06400738 71200","PERIOD":"95.592","ECCENTRICITY":"0.00015210","NORAD_CAT_ID":"47791","TLE_LINE1":"1 47791U 21018E   22166.92426074  .00000132  00000-0  27764-4 0  9997","BSTAR":"0.00002776400000","RCS_SIZE":"LARGE","GP_ID":"206287173","SITE":"AFETR","APOAPSIS":"548.265","OBJECT_NAME":"STARLINK-2322","OBJECT_TYPE":"PAYLOAD","CLASSIFICATION_TYPE":"U","MEAN_MOTION_DDOT":"0.0000000000000","MEAN_ELEMENT_THEORY":"SGP4"},{"REF_FRAME":"TEME","SEMIMAJOR_AXIS":"6925.378","MEAN_MOTION_DOT":"-0.00000895","PERIAPSIS":"546.010","MEAN_MOTION":"15.06390407","DECAY_DATE":null,"EPHEMERIS_TYPE":"0","REV_AT_EPOCH":"7147","MEAN_ANOMALY":"312.8673","CENTER_NAME":"EARTH","OBJECT_ID":"2021-018F","FILE":"3496999","INCLINATION":"53.0549","LAUNCH_DATE":"2021-03-11","TLE_LINE2":"2 47792  53.0549 229.5558 0001781  47.2465 312.8673 15.06390407 71472","ARG_OF_PERICENTER":"47.2465","PERIOD":"95.593","ECCENTRICITY":"0.00017810","TIME_SYSTEM":"UTC","EPOCH":"2022-06-15T20:54:00.090432","COUNTRY_CODE":"US","ELEMENT_SET_NO":"999","RA_OF_ASC_NODE":"229.5558","BSTAR":"-0.00004120000000","RCS_SIZE":"LARGE","TLE_LINE1":"1 47792U 21018F   22166.87083438 -.00000895  00000-0 -41200-4 0  9994","NORAD_CAT_ID":"47792","OBJECT_NAME":"STARLINK-2334","SITE":"AFETR","GP_ID":"206236167","APOAPSIS":"548.476","MEAN_ELEMENT_THEORY":"SGP4","MEAN_MOTION_DDOT":"0.0000000000000","CLASSIFICATION_TYPE":"U","OBJECT_TYPE":"PAYLOAD"},{"LAUNCH_DATE":"2021-03-11","FILE":"3497002","INCLINATION":"53.0543","TLE_LINE2":"2 47793  53.0543 229.4972 0001596  58.4631 301.6513 15.06413846 71460","ARG_OF_PERICENTER":"58.4631","PERIOD":"95.591","ECCENTRICITY":"0.00015960","TIME_SYSTEM":"UTC","RA_OF_ASC_NODE":"229.4972","COUNTRY_CODE":"US","EPOCH":"2022-06-15T21:15:11.482848","ELEMENT_SET_NO":"999","SEMIMAJOR_AXIS":"6925.306","REF_FRAME":"TEME","MEAN_ANOMALY":"301.6513","REV_AT_EPOCH":"7146","MEAN_MOTION_DOT":"-0.00001740","PERIAPSIS":"546.066","MEAN_MOTION":"15.06413846","DECAY_DATE":null,"EPHEMERIS_TYPE":"0","OBJECT_ID":"2021-018G","CENTER_NAME":"EARTH","OBJECT_NAME":"STARLINK-2338","APOAPSIS":"548.276","SITE":"AFETR","GP_ID":"206288170","MEAN_ELEMENT_THEORY":"SGP4","MEAN_MOTION_DDOT":"0.0000000000000","CLASSIFICATION_TYPE":"U","OBJECT_TYPE":"PAYLOAD","RCS_SIZE":"LARGE","BSTAR":"-0.00009792100000","TLE_LINE1":"1 47793U 21018G   22166.88554957 -.00001740  00000-0 -97921-4 0  9996","NORAD_CAT_ID":"47793"},{"RCS_SIZE":"LARGE","BSTAR":"-0.00020586000000","NORAD_CAT_ID":"47794","TLE_LINE1":"1 47794U 21018H   22166.88924352 -.00003348  00000-0 -20586-3 0  9995","MEAN_MOTION_DDOT":"0.0000000000000","MEAN_ELEMENT_THEORY":"SGP4","OBJECT_TYPE":"PAYLOAD","CLASSIFICATION_TYPE":"U","OBJECT_NAME":"STARLINK-2341","APOAPSIS":"548.436","GP_ID":"206288918","SITE":"AFETR","OBJECT_ID":"2021-018H","CENTER_NAME":"EARTH","SEMIMAJOR_AXIS":"6925.315","REF_FRAME":"TEME","MEAN_ANOMALY":"314.3383","REV_AT_EPOCH":"7147","EPHEMERIS_TYPE":"0","DECAY_DATE":null,"PERIAPSIS":"545.924","MEAN_MOTION_DOT":"-0.00003348","MEAN_MOTION":"15.06410950","TIME_SYSTEM":"UTC","TLE_LINE2":"2 47794  53.0541 229.4776 0001814  45.7754 314.3383 15.06410950 71479","PERIOD":"95.591","ECCENTRICITY":"0.00018140","ARG_OF_PERICENTER":"45.7754","RA_OF_ASC_NODE":"229.4776","ELEMENT_SET_NO":"999","COUNTRY_CODE":"US","EPOCH":"2022-06-15T21:20:30.640128","LAUNCH_DATE":"2021-03-11","INCLINATION":"53.0541","FILE":"3497002"},{"MEAN_MOTION_DDOT":"0.0000000000000","MEAN_ELEMENT_THEORY":"SGP4","CLASSIFICATION_TYPE":"U","OBJECT_TYPE":"PAYLOAD","OBJECT_NAME":"STARLINK-2347","APOAPSIS":"548.166","GP_ID":"206237919","SITE":"AFETR","RCS_SIZE":"LARGE","BSTAR":"-0.00006029600000","NORAD_CAT_ID":"47795","TLE_LINE1":"1 47795U 21018J   22166.87819754 -.00001180  00000-0 -60296-4 0  9999","TIME_SYSTEM":"UTC","ARG_OF_PERICENTER":"75.8155","TLE_LINE2":"2 47795  53.0545 229.5263 0001395  75.8155 284.2988 15.06404323 71528","PERIOD":"95.592","ECCENTRICITY":"0.00013950","RA_OF_ASC_NODE":"229.5263","ELEMENT_SET_NO":"999","EPOCH":"2022-06-15T21:04:36.267456","COUNTRY_CODE":"US","LAUNCH_DATE":"2021-03-11","INCLINATION":"53.0545","FILE":"3496999","OBJECT_ID":"2021-018J","CENTER_NAME":"EARTH","SEMIMAJOR_AXIS":"6925.335","REF_FRAME":"TEME","MEAN_ANOMALY":"284.2988","REV_AT_EPOCH":"7152","DECAY_DATE":null,"EPHEMERIS_TYPE":"0","PERIAPSIS":"546.234","MEAN_MOTION":"15.06404323","MEAN_MOTION_DOT":"-0.00001180"},{"CENTER_NAME":"EARTH","OBJECT_ID":"2021-018K","PERIAPSIS":"546.235","MEAN_MOTION":"15.06389368","MEAN_MOTION_DOT":"-0.00001351","DECAY_DATE":null,"EPHEMERIS_TYPE":"0","MEAN_ANOMALY":"302.8658","REV_AT_EPOCH":"7147","REF_FRAME":"TEME","SEMIMAJOR_AXIS":"6925.381","EPOCH":"2022-06-15T21:25:50.282976","COUNTRY_CODE":"US","ELEMENT_SET_NO":"999","RA_OF_ASC_NODE":"229.4639","TLE_LINE2":"2 47796  53.0533 229.4639 0001460  57.2472 302.8658 15.06389368 71477","ARG_OF_PERICENTER":"57.2472","PERIOD":"95.593","ECCENTRICITY":"0.00014600","TIME_SYSTEM":"UTC","FILE":"3497002","INCLINATION":"53.0533","LAUNCH_DATE":"2021-03-11","TLE_LINE1":"1 47796U 21018K   22166.89294309 -.00001351  00000-0 -71843-4 0  9995","NORAD_CAT_ID":"47796","BSTAR":"-0.00007184300000","RCS_SIZE":"LARGE","CLASSIFICATION_TYPE":"U","OBJECT_TYPE":"PAYLOAD","MEAN_ELEMENT_THEORY":"SGP4","MEAN_MOTION_DDOT":"0.0000000000000","SITE":"AFETR","GP_ID":"206287423","APOAPSIS":"548.257","OBJECT_NAME":"STARLINK-2373"}];
